OBJECT_NAME,OBJECT_ID,EPOCH,MEAN_MOTION,ECCENTRICITY,INCLINATION,RA_OF_ASC_NODE,ARG_OF_PERICENTER,MEAN_ANOMALY,EPHEMERIS_TYPE,CLASSIFICATION_TYPE,NORAD_CAT_ID,ELEMENT_SET_NO,REV_AT_EPOCH,BSTAR,MEAN_MOTION_DOT,MEAN_MOTION_DDOT
STARLINK-2015,2021-012U,2023-06-13T23:25:20.539488,15.06401470,.0001017,53.0535,144.5087,85.9976,274.1129,0,U,47638,999,13011,.92814E-5,-.143E-5,0
STARLINK-2016,2021-012V,2023-06-14T03:43:25.657248,15.06401876,.0001295,53.0524,218.7012,90.9985,269.1152,0,U,47639,999,12909,.13703E-3,.176E-4,0
STARLINK-2018,2021-012W,2023-06-14T08:22:05.282400,15.06393347,.0000975,53.0541,237.8343,64.4815,295.6274,0,U,47640,999,12884,.10146E-2,.1486E-3,0
STARLINK-2019,2021-012X,2023-06-14T07:01:48.024480,15.06403178,.000134,53.0548,143.0877,85.7879,274.3263,0,U,47641,999,13016,.69874E-4,.76E-5,0
STARLINK-2020,2021-012Y,2023-06-14T05:19:38.252064,15.06405750,.00018,53.0534,233.4057,79.9501,280.1691,0,U,47642,999,12889,.13174E-3,.1681E-4,0
STARLINK-2022,2021-012Z,2023-06-14T04:04:39.704736,15.06401512,.0000774,53.0537,218.6389,67.7709,292.3362,0,U,47643,999,12909,.66125E-4,.704E-5,0
STARLINK-2026,2021-012AA,2023-06-14T04:23:15.464832,15.06397508,.0001078,53.0542,238.5818,90.2598,269.8515,0,U,47644,999,12882,.15833E-3,.2078E-4,0
STARLINK-2027,2021-012AB,2023-06-14T03:18:15.529536,15.06399308,.0000467,53.0527,209.0209,106.6717,253.4323,0,U,47645,999,12922,.13819E-3,.1778E-4,0
STARLINK-2028,2021-012AC,2023-06-14T01:23:29.475456,15.06397823,.0001103,53.0534,174.3825,79.3009,280.8104,0,U,47646,999,12970,.35414E-4,.246E-5,0
STARLINK-2030,2021-012AD,2023-06-13T23:52:32.185344,15.06402714,.0000923,53.0527,239.4241,86.6858,273.4237,0,U,47647,999,12879,.14097E-3,.1819E-4,0
STARLINK-2031,2021-012AE,2023-06-14T04:25:52.761216,15.06399396,.0000972,53.0533,218.5720,84.7592,275.3508,0,U,47648,999,12910,-.44586E-3,-.6916E-4,0
STARLINK-2032,2021-012AF,2023-06-13T23:44:35.715264,15.06390593,.0001177,53.0528,219.4438,61.3125,298.7982,0,U,47649,999,12907,-.61597E-4,-.1198E-4,0
STARLINK-2033,2021-012AG,2023-06-13T23:23:20.465952,15.06400926,.0001186,53.0527,219.5116,107.1823,252.9296,0,U,47650,999,12906,-.27048E-3,-.4308E-4,0
STARLINK-2035,2021-012AH,2023-06-14T08:16:48.195264,15.06395293,.0001402,53.0543,237.8953,127.2522,232.8595,0,U,47651,999,12884,.15957E-3,.2096E-4,0
STARLINK-2036,2021-012AJ,2023-06-14T05:37:32.636928,15.06396576,.0001283,53.0547,238.3503,89.2805,270.8331,0,U,47652,999,12882,-.31738E-3,-.5005E-4,0
STARLINK-2037,2021-012AK,2023-06-13T10:23:06.124128,15.06426389,.0000996,53.0525,221.9434,89.0894,271.0209,0,U,47653,999,12898,.10717E-2,.15729E-3,0
STARLINK-2038,2021-012AL,2023-06-13T21:45:09.092736,15.06418034,.0001049,53.0538,239.8170,58.3981,301.7110,0,U,47654,999,12877,.45937E-3,.6571E-4,0
STARLINK-2039,2021-012AM,2023-06-14T07:07:47.212608,15.06388741,.0001095,53.0535,238.0671,63.7379,296.3722,0,U,47655,999,12883,-.2007E-3,-.3268E-4,0
STARLINK-2040,2021-012AN,2023-06-13T23:33:58.964544,15.06400687,.0001276,53.0534,219.4823,69.6897,290.4229,0,U,47656,999,12906,.27451E-3,.381E-4,0
STARLINK-2041,2021-012AP,2023-06-13T23:41:55.422528,15.06410065,.0001025,53.0507,239.4531,74.3309,285.7793,0,U,47657,999,12879,.43366E-3,.6186E-4,0
STARLINK-2042,2021-012AQ,2023-06-14T05:53:29.497920,15.06396248,.000123,53.0543,238.2968,80.0556,280.0572,0,U,47658,999,12883,.58235E-4,.586E-5,0
STARLINK-2043,2021-012AR,2023-06-14T06:30:37.079136,15.06410646,.0001344,53.0541,118.1838,97.2465,262.8677,0,U,47659,999,13050,.24669E-3,.3396E-4,0
STARLINK-2044,2021-012AS,2023-06-13T23:00:54.850752,15.06400926,.0001186,53.0537,110.2154,105.8834,254.2286,0,U,47660,999,13059,.86112E-3,.12568E-3,0
STARLINK-2051,2021-012AT,2023-06-14T03:27:30.731616,15.06401137,.0001295,53.0526,218.7547,74.3687,285.7445,0,U,47661,999,12909,.11455E-3,.1425E-4,0
STARLINK-2052,2021-012AU,2023-06-14T02:59:36.445632,15.06397204,.0000977,53.0521,218.8367,94.5399,265.5701,0,U,47662,999,12909,-.30036E-4,-.729E-5,0
STARLINK-2053,2021-012AV,2023-06-13T22:09:06.342912,15.06409469,.0001042,53.0543,140.0654,64.5502,295.5594,0,U,47663,999,13017,.20711E-3,.2806E-4,0
STARLINK-2054,2021-012AW,2023-06-14T06:00:00.999648,15.06396784,.0000981,53.0533,218.2784,89.4081,225.3584,0,U,47664,999,12910,-.86875E-3,-.13196E-3,0
STARLINK-2056,2021-012AX,2023-06-14T02:32:25.875456,15.06412764,.0000771,53.0527,213.9679,97.8577,262.2499,0,U,47665,999,12915,.22707E-3,.3104E-4,0
STARLINK-2057,2021-012AY,2023-06-13T23:16:06.855456,15.06404859,.0001432,53.0541,214.8960,104.2832,255.8316,0,U,47666,999,12913,.17724E-3,.236E-4,0
STARLINK-2058,2021-012AZ,2023-06-14T08:32:42.402912,15.06400575,.0001322,53.0545,237.8025,66.8903,293.2225,0,U,47667,999,12884,.18209E-4,-.1E-6,0
STARLINK-2059,2021-012BA,2023-06-14T00:00:30.675456,15.06396885,.0001145,53.0529,219.3976,75.4323,284.6793,0,U,47668,999,12907,.2058E-4,.25E-6,0
STARLINK-2062,2021-012BC,2023-06-13T21:10:39.652896,15.06397835,.000161,53.0528,219.9255,78.4219,281.6951,0,U,47670,999,12905,.70229E-4,.765E-5,0
STARLINK-2064,2021-012BD,2023-06-13T23:55:11.894880,15.06393369,.0000983,53.0541,219.4162,104.5976,255.5122,0,U,47671,999,12907,-.96708E-4,-.1721E-4,0
STARLINK-2065,2021-012BE,2023-06-13T20:13:35.827392,15.06402121,.0001053,53.0537,210.1058,88.0773,272.0336,0,U,47672,999,12918,.14472E-3,.1875E-4,0
STARLINK-2066,2021-012BF,2023-06-13T22:51:29.926080,15.06399232,.0000472,53.0523,219.6117,93.3444,266.7599,0,U,47673,999,12906,.54757E-5,-.199E-5,0
STARLINK-2067,2021-012BG,2023-06-14T03:57:59.168160,15.06402500,.0001005,53.0533,218.6490,110.1268,249.9829,0,U,47674,999,12909,.67545E-4,.725E-5,0
STARLINK-2078,2021-012BH,2023-06-14T03:48:43.968672,15.06403231,.0001142,53.0542,218.6897,98.6034,261.5085,0,U,47675,999,12909,.10539E-3,.1289E-4,0
STARLINK-2083,2021-012BJ,2023-06-13T19:44:24.598752,15.06403793,.0001514,53.0551,110.2010,104.1234,255.9923,0,U,47676,999,13058,.12427E-3,.157E-4,0
STARLINK-2090,2021-012BK,2023-06-14T08:15:24.992064,15.06396173,.000213,53.0546,237.8373,148.4892,211.6225,0,U,47677,999,12884,-.90735E-4,-.1633E-4,0
STARLINK-2095,2021-012BM,2023-06-13T21:49:06.058560,15.06400190,.0001104,53.0537,239.8040,84.7201,275.3914,0,U,47679,999,12878,.52476E-4,.5E-5,0
FLOCK 4S-46,2021-006EK,2023-06-13T21:46:53.946912,15.30117995,.000709,97.3908,223.9545,113.3508,246.8479,0,U,47684,999,13223,.38577E-3,.1118E-3,0
FLOCK 4S-47,2021-006EL,2023-06-13T21:31:15.515904,15.30294138,.0007233,97.3860,223.2905,103.8305,256.3741,0,U,47685,999,13220,.31167E-3,.9065E-4,0
FLOCK 4S-44,2021-006EM,2023-06-13T21:29:24.775296,15.30256060,.0010705,97.3912,224.0554,99.4306,260.8146,0,U,47686,999,13222,.43295E-3,.12625E-3,0
FLOCK 4S-43,2021-006EN,2023-06-13T21:15:21.699648,15.29684916,.0006291,97.3882,223.3198,118.4446,241.7429,0,U,47687,999,13316,.49338E-3,.14133E-3,0
FLOCK 4S-45,2021-006EP,2023-06-13T16:57:37.117440,15.30056621,.0009134,97.3897,223.2544,83.7462,276.4819,0,U,47688,999,13313,.42634E-3,.12349E-3,0
YAOGAN-31 G,2021-014A,2023-06-14T12:06:43.822368,13.45265155,.0079025,63.4054,140.0042,355.1283,4.8965,0,U,47691,999,11306,.96457E-4,-.32E-6,0
YAOGAN-31 H,2021-014C,2023-06-14T12:06:43.398144,13.45264625,.0079184,63.4062,140.9591,354.9993,5.0234,0,U,47693,999,11303,.91307E-4,-.35E-6,0
YAOGAN-31 J,2021-014E,2023-06-14T12:06:26.169120,13.45264972,.0079141,63.4046,139.9500,355.2348,4.7916,0,U,47695,999,11305,.81192E-4,-.41E-6,0
FLOCK 4S-41,2021-006ER,2023-06-13T14:18:52.744320,15.30062612,.0008675,97.3954,223.9515,97.1077,263.1151,0,U,47698,999,13216,.41329E-3,.11968E-3,0
AMAZONIA 1,2021-015A,2023-06-14T05:09:36.921024,14.40808692,.0001244,98.4285,242.4857,70.2731,289.8592,0,U,47699,999,12039,.10279E-3,.286E-5,0
SAI-1 NANOCONNECT-2,2021-015C,2023-06-14T09:59:59.425728,15.48340509,.0007438,97.3862,248.6543,229.2825,130.7780,0,U,47701,999,12772,.88597E-3,.47017E-3,0
SINE (SINDHUNETRA),2021-015D,2023-06-14T03:58:33.922560,15.46187880,.0007484,97.3925,247.9790,223.1790,136.8873,0,U,47702,999,12761,.89121E-3,.43891E-3,0
ARKTIKA-M 1,2021-016A,2023-06-14T09:00:04.276800,2.00604215,.6891966,63.1494,192.9645,269.7930,17.9482,0,U,47719,999,1676,0,.214E-5,0
SDSAT,2021-015V,2023-06-14T11:28:45.039648,15.73643709,.0008449,97.3795,250.8381,216.0567,144.0128,0,U,47721,999,12783,.17184E-2,.247214E-2,0
STARLINK-2068,2021-017A,2023-06-13T19:39:48.631968,15.06419583,.0001218,53.0540,5.4551,94.3927,265.7201,0,U,47722,999,12728,.12811E-2,.18862E-3,0
STARLINK-2107,2021-017B,2023-06-14T08:35:21.712416,15.06397969,.0001065,53.0544,297.7912,125.9203,234.1885,0,U,47723,999,12759,.80532E-3,.11733E-3,0
STARLINK-2116,2021-017C,2023-06-14T14:00:01.000224,15.06394868,.0000773,53.0545,296.7803,80.6832,222.7243,0,U,47724,999,12762,-.25946E-3,-.4143E-4,0
STARLINK-2125,2021-017D,2023-06-14T08:42:00.249696,15.06411518,.0002335,53.0511,7.7813,74.8493,285.2754,0,U,47725,999,12661,.8059E-3,.11746E-3,0
STARLINK-2126,2021-017E,2023-06-14T13:07:23.292768,15.06399836,.0000796,53.0553,6.9425,112.1932,247.9141,0,U,47726,999,12664,.10183E-4,-.13E-5,0
STARLINK-2129,2021-017F,2023-06-14T08:45:56.913120,15.06409648,.0000647,53.0547,287.7586,77.7955,282.3106,0,U,47727,999,12773,.4898E-3,.7024E-4,0
STARLINK-2131,2021-017G,2023-06-13T20:34:50.105568,15.06426064,.0001142,53.0549,10.0432,76.9669,283.1447,0,U,47728,999,12722,.15703E-2,.23202E-3,0
STARLINK-2132,2021-017H,2023-06-14T10:00:59.608512,15.06407518,.0002232,53.0542,312.7293,90.0825,270.0420,0,U,47729,999,12740,.10073E-2,.14757E-3,0
STARLINK-2140,2021-017J,2023-06-14T09:51:39.440160,15.06425979,.0000449,53.0570,22.5646,300.1690,59.9254,0,U,47730,999,12641,.31942E-3,.4483E-4,0
STARLINK-2141,2021-017K,2023-06-14T00:27:02.809728,15.06433531,.0000992,53.0557,19.3131,87.3701,272.7402,0,U,47731,999,12642,.15223E-2,.22486E-3,0
STARLINK-2142,2021-017L,2023-06-14T09:21:11.115936,15.06403036,.0001047,53.0552,292.8906,101.8993,258.2114,0,U,47732,999,12766,.1788E-3,.2383E-4,0
STARLINK-2143,2021-017M,2023-06-14T09:43:02.511552,15.06398346,.0000954,53.0548,27.5827,122.2564,237.8518,0,U,47733,999,12634,.6376E-3,.9228E-4,0
